[
  {
    "OBJECT_NAME": "STARLINK-37125",
    "OBJECT_ID": "2026-055Q",
    "EPOCH": "2026-04-17T13:48:21.473856",
    "MEAN_MOTION": 15.80918804,
    "ECCENTRICITY": 0.00011265,
    "INCLINATION": 53.1574,
    "RA_OF_ASC_NODE": 142.2898,
    "ARG_OF_PERICENTER": 116.6016,
    "MEAN_ANOMALY": 243.5122,
    "EPHEMERIS_TYPE": 0,
    "CLASSIFICATION_TYPE": "U",
    "NORAD_CAT_ID": 68276,
    "ELEMENT_SET_NO": 999,
    "REV_AT_EPOCH": 583,
    "BSTAR": 0.00077838606,
    "MEAN_MOTION_DOT": 0.00156065,
    "MEAN_MOTION_DDOT": 0
  },
  {
    "OBJECT_NAME": "STARLINK-36989",
    "OBJECT_ID": "2026-055R",
    "EPOCH": "2026-04-17T13:45:07.257024",
    "MEAN_MOTION": 15.80916278,
    "ECCENTRICITY": 0.00014158,
    "INCLINATION": 53.1566,
    "RA_OF_ASC_NODE": 142.2764,
    "ARG_OF_PERICENTER": 53.5424,
    "MEAN_ANOMALY": 306.5729,
    "EPHEMERIS_TYPE": 0,
    "CLASSIFICATION_TYPE": "U",
    "NORAD_CAT_ID": 68277,
    "ELEMENT_SET_NO": 999,
    "REV_AT_EPOCH": 583,
    "BSTAR": 0.00077295585,
    "MEAN_MOTION_DOT": 0.00154934,
    "MEAN_MOTION_DDOT": 0
  },
  {
    "OBJECT_NAME": "STARLINK-36982",
    "OBJECT_ID": "2026-055S",
    "EPOCH": "2026-04-17T13:46:12.106272",
    "MEAN_MOTION": 15.8091701,
    "ECCENTRICITY": 0.00012788,
    "INCLINATION": 53.1562,
    "RA_OF_ASC_NODE": 142.2825,
    "ARG_OF_PERICENTER": 72.7824,
    "MEAN_ANOMALY": 287.3338,
    "EPHEMERIS_TYPE": 0,
    "CLASSIFICATION_TYPE": "U",
    "NORAD_CAT_ID": 68278,
    "ELEMENT_SET_NO": 999,
    "REV_AT_EPOCH": 583,
    "BSTAR": 0.00076065505,
    "MEAN_MOTION_DOT": 0.00152417,
    "MEAN_MOTION_DDOT": 0
  },
  {
    "OBJECT_NAME": "STARLINK-36934",
    "OBJECT_ID": "2026-055T",
    "EPOCH": "2026-04-17T13:47:16.921824",
    "MEAN_MOTION": 15.80916855,
    "ECCENTRICITY": 0.00010579,
    "INCLINATION": 53.1567,
    "RA_OF_ASC_NODE": 142.2879,
    "ARG_OF_PERICENTER": 83.4398,
    "MEAN_ANOMALY": 276.6745,
    "EPHEMERIS_TYPE": 0,
    "CLASSIFICATION_TYPE": "U",
    "NORAD_CAT_ID": 68279,
    "ELEMENT_SET_NO": 999,
    "REV_AT_EPOCH": 583,
    "BSTAR": 0.00069738,
    "MEAN_MOTION_DOT": 0.00139467,
    "MEAN_MOTION_DDOT": 0
  },
  {
    "OBJECT_NAME": "STARLINK-37070",
    "OBJECT_ID": "2026-055U",
    "EPOCH": "2026-04-17T09:10:56.233056",
    "MEAN_MOTION": 15.8090679,
    "ECCENTRICITY": 0.00016403,
    "INCLINATION": 53.1574,
    "RA_OF_ASC_NODE": 143.2246,
    "ARG_OF_PERICENTER": 37.7033,
    "MEAN_ANOMALY": 322.4105,
    "EPHEMERIS_TYPE": 0,
    "CLASSIFICATION_TYPE": "U",
    "NORAD_CAT_ID": 68280,
    "ELEMENT_SET_NO": 999,
    "REV_AT_EPOCH": 580,
    "BSTAR": 0.00063339972,
    "MEAN_MOTION_DOT": 0.00126357,
    "MEAN_MOTION_DDOT": 0
  },
  {
    "OBJECT_NAME": "STARLINK-37134",
    "OBJECT_ID": "2026-055V",
    "EPOCH": "2026-04-17T13:41:52.703232",
    "MEAN_MOTION": 15.80943538,
    "ECCENTRICITY": 9.524e-05,
    "INCLINATION": 53.1564,
    "RA_OF_ASC_NODE": 142.261,
    "ARG_OF_PERICENTER": 84.5968,
    "MEAN_ANOMALY": 275.5164,
    "EPHEMERIS_TYPE": 0,
    "CLASSIFICATION_TYPE": "U",
    "NORAD_CAT_ID": 68281,
    "ELEMENT_SET_NO": 999,
    "REV_AT_EPOCH": 583,
    "BSTAR": 0.0011519072,
    "MEAN_MOTION_DOT": 0.00233668,
    "MEAN_MOTION_DDOT": 0
  },
  {
    "OBJECT_NAME": "STARLINK-37160",
    "OBJECT_ID": "2026-055W",
    "EPOCH": "2026-04-17T13:42:57.600864",
    "MEAN_MOTION": 15.8096103,
    "ECCENTRICITY": 8.923e-05,
    "INCLINATION": 53.1567,
    "RA_OF_ASC_NODE": 142.2677,
    "ARG_OF_PERICENTER": 82.0765,
    "MEAN_ANOMALY": 278.0359,
    "EPHEMERIS_TYPE": 0,
    "CLASSIFICATION_TYPE": "U",
    "NORAD_CAT_ID": 68282,
    "ELEMENT_SET_NO": 999,
    "REV_AT_EPOCH": 583,
    "BSTAR": 0.0011635165,
    "MEAN_MOTION_DOT": 0.00236294,
    "MEAN_MOTION_DDOT": 0
  },
  {
    "OBJECT_NAME": "STARLINK-37124",
    "OBJECT_ID": "2026-055X",
    "EPOCH": "2026-04-17T19:44:56.828544",
    "MEAN_MOTION": 15.80922247,
    "ECCENTRICITY": 0.00014279,
    "INCLINATION": 53.1566,
    "RA_OF_ASC_NODE": 140.9892,
    "ARG_OF_PERICENTER": 106.9891,
    "MEAN_ANOMALY": 253.1288,
    "EPHEMERIS_TYPE": 0,
    "CLASSIFICATION_TYPE": "U",
    "NORAD_CAT_ID": 68283,
    "ELEMENT_SET_NO": 999,
    "REV_AT_EPOCH": 587,
    "BSTAR": 0.0014555369,
    "MEAN_MOTION_DOT": 0.00297364,
    "MEAN_MOTION_DDOT": 0
  },
  {
    "OBJECT_NAME": "STARLINK-37159",
    "OBJECT_ID": "2026-055Y",
    "EPOCH": "2026-04-17T22:00:01.999584",
    "MEAN_MOTION": 15.69962052,
    "ECCENTRICITY": 0.00010522,
    "INCLINATION": 53.1594,
    "RA_OF_ASC_NODE": 140.6167,
    "ARG_OF_PERICENTER": 70.9872,
    "MEAN_ANOMALY": 56.6224,
    "EPHEMERIS_TYPE": 0,
    "CLASSIFICATION_TYPE": "U",
    "NORAD_CAT_ID": 68284,
    "ELEMENT_SET_NO": 999,
    "REV_AT_EPOCH": 593,
    "BSTAR": -0.017586422,
    "MEAN_MOTION_DOT": -0.01910374,
    "MEAN_MOTION_DDOT": 0
  },
  {
    "OBJECT_NAME": "STARLINK-36725",
    "OBJECT_ID": "2026-055Z",
    "EPOCH": "2026-04-17T19:42:47.009088",
    "MEAN_MOTION": 15.81007614,
    "ECCENTRICITY": 5.605e-05,
    "INCLINATION": 53.1567,
    "RA_OF_ASC_NODE": 140.9781,
    "ARG_OF_PERICENTER": 50.3312,
    "MEAN_ANOMALY": 309.776,
    "EPHEMERIS_TYPE": 0,
    "CLASSIFICATION_TYPE": "U",
    "NORAD_CAT_ID": 68285,
    "ELEMENT_SET_NO": 999,
    "REV_AT_EPOCH": 587,
    "BSTAR": 0.0017388985,
    "MEAN_MOTION_DOT": 0.0035942,
    "MEAN_MOTION_DDOT": 0
  },
  {
    "OBJECT_NAME": "STARLINK-36998",
    "OBJECT_ID": "2026-055AA",
    "EPOCH": "2026-04-17T19:40:37.481664",
    "MEAN_MOTION": 15.80920891,
    "ECCENTRICITY": 0.00015803,
    "INCLINATION": 53.1565,
    "RA_OF_ASC_NODE": 140.9701,
    "ARG_OF_PERICENTER": 99.1775,
    "MEAN_ANOMALY": 260.9426,
    "EPHEMERIS_TYPE": 0,
    "CLASSIFICATION_TYPE": "U",
    "NORAD_CAT_ID": 68286,
    "ELEMENT_SET_NO": 999,
    "REV_AT_EPOCH": 587,
    "BSTAR": 0.0010305398,
    "MEAN_MOTION_DOT": 0.00208133,
    "MEAN_MOTION_DDOT": 0
  },
  {
    "OBJECT_NAME": "STARLINK-37165",
    "OBJECT_ID": "2026-055AB",
    "EPOCH": "2026-04-17T19:39:32.718816",
    "MEAN_MOTION": 15.80909506,
    "ECCENTRICITY": 0.00014101,
    "INCLINATION": 53.1566,
    "RA_OF_ASC_NODE": 140.9631,
    "ARG_OF_PERICENTER": 86.3639,
    "MEAN_ANOMALY": 273.7545,
    "EPHEMERIS_TYPE": 0,
    "CLASSIFICATION_TYPE": "U",
    "NORAD_CAT_ID": 68287,
    "ELEMENT_SET_NO": 999,
    "REV_AT_EPOCH": 587,
    "BSTAR": 0.00084879693,
    "MEAN_MOTION_DOT": 0.0017046,
    "MEAN_MOTION_DDOT": 0
  },
  {
    "OBJECT_NAME": "STARLINK-37016",
    "OBJECT_ID": "2026-055AC",
    "EPOCH": "2026-04-17T19:41:43.686528",
    "MEAN_MOTION": 15.80994549,
    "ECCENTRICITY": 0.00027612,
    "INCLINATION": 53.1565,
    "RA_OF_ASC_NODE": 140.9731,
    "ARG_OF_PERICENTER": 336.668,
    "MEAN_ANOMALY": 23.4217,
    "EPHEMERIS_TYPE": 0,
    "CLASSIFICATION_TYPE": "U",
    "NORAD_CAT_ID": 68288,
    "ELEMENT_SET_NO": 999,
    "REV_AT_EPOCH": 587,
    "BSTAR": 0.0011937439,
    "MEAN_MOTION_DOT": 0.00243034,
    "MEAN_MOTION_DDOT": 0
  },
  {
    "OBJECT_NAME": "STARLINK-37010",
    "OBJECT_ID": "2026-055AD",
    "EPOCH": "2026-04-17T19:38:27.922272",
    "MEAN_MOTION": 15.80974459,
    "ECCENTRICITY": 9.359e-05,
    "INCLINATION": 53.1567,
    "RA_OF_ASC_NODE": 140.9586,
    "ARG_OF_PERICENTER": 63.0277,
    "MEAN_ANOMALY": 297.0841,
    "EPHEMERIS_TYPE": 0,
    "CLASSIFICATION_TYPE": "U",
    "NORAD_CAT_ID": 68289,
    "ELEMENT_SET_NO": 999,
    "REV_AT_EPOCH": 587,
    "BSTAR": 0.0012644172,
    "MEAN_MOTION_DOT": 0.00257649,
    "MEAN_MOTION_DDOT": 0
  }
]